{"type": "FeatureCollection", "features": [{"type": "Feature", "properties": {"id": "OEJD", "name": "OEJD FIR"}, "geometry": {"type": "MultiPolygon", "coordinates": [[[[48.684167, 28.544722], [48.866238, 28.236056], [49.130656, 27.823578], [49.868346, 27.145641], [50.470767, 26.583173], [50.387261, 26.529306], [50.279667, 26.08376], [50.38967, 25.781926], [50.564544437993, 25.563594148243], [50.597387, 25.52259], [50.648144, 25.328995], [50.709524, 25.044813], [50.81378, 24.755556], [50.859444, 24.673333], [50.909167, 24.581389], [50.938347, 24.530437], [51.20341, 24.47076], [51.371401, 24.52995], [51.498266, 24.664771], [51.57372, 24.704721], [51.591408, 24.119733], [51.727372, 23.965255], [51.783333, 24.05], [52.583333, 22.933333], [55.132168939552, 22.643213094818], [55.194566985115, 22.708141182969], [55.666667, 22.0], [55.016667, 20.0], [52.0, 19.0], [50.783333, 18.788889], [49.116667, 18.616667], [48.183333, 18.166667], [47.6, 17.45], [47.466667, 17.116667], [47.183333, 16.95], [47.0, 16.95], [46.75, 17.283333], [46.366667, 17.233333], [46.1, 17.25], [45.4, 17.333333], [45.216667, 17.433333], [44.65, 17.433333], [44.566667, 17.4], [44.466667, 17.433333], [44.366111, 17.433333], [44.207364, 17.413828], [44.096583, 17.354411], [43.910442, 17.304667], [43.698328, 17.374308], [43.336186, 17.588208], [43.2346, 17.438972], [43.333539, 17.299689], [43.204892, 17.254917], [43.148583, 16.931578], [43.266878, 16.74255], [43.226542, 16.653008], [43.152069, 16.648033], [43.099336, 16.543569], [42.958783, 16.48885], [42.947347, 16.404283], [42.819247, 16.364486], [42.776669, 16.409258], [42.15, 16.404111], [41.783333, 16.29], [42.0, 16.0], [41.875, 15.783333], [41.663056, 15.665278], [41.0, 16.0], [39.006457646273, 19.195046598034], [38.5, 20.0], [38.0, 22.0], [37.88638888888889, 22.2925], [37.36527777777778, 23.015], [37.16444444444444, 23.291111111111114], [34.9725, 26.677222222222223], [34.94453333333333, 26.74256111111111], [34.60293055555556, 27.537555555555556], [34.473888888888894, 27.836388888888887], [34.455555555555556, 27.911388888888887], [34.46361111111111, 27.967777777777776], [34.46388888888889, 27.978055555555553], [34.461666666666666, 28.006666666666668], [34.469166666666666, 28.035], [34.490833333333335, 28.060833333333335], [34.534166666666664, 28.18611111111111], [34.573055555555555, 28.343888888888888], [34.65138888888889, 28.517777777777777], [34.6925, 28.714444444444442], [34.73388888888889, 28.911388888888887], [34.74004, 28.94238], [34.74095833333333, 28.94701388888889], [34.76305555555555, 29.058333333333334], [34.95, 29.35], [34.96194444444445, 29.357222222222223], [36.066667, 29.191667], [36.5, 29.5], [36.75, 29.866667], [37.5, 30.0], [37.666667, 30.333333], [38.0, 30.5], [37.0, 31.5], [39.0, 32.0], [39.201944, 32.153889], [40.416667, 31.95], [41.354842, 31.424158], [41.45, 31.366667], [42.083333, 31.116667], [44.716667, 29.2], [46.433333, 29.066669], [46.555278, 29.101111], [47.466667, 29.0], [47.566667, 28.85], [47.6, 28.783333], [47.6, 28.683333], [47.65, 28.6], [47.708333, 28.525], [48.433333, 28.541111], [48.684167, 28.544722]]]]}}, {"type": "Feature", "properties": {"id": "OIIX", "name": "OIIX FIR"}, "geometry": {"type": "MultiPolygon", "coordinates": [[[[60.683031, 34.317683], [60.466369, 34.101019], [60.533036, 33.734358], [60.666367, 33.517697], [60.883028, 33.517697], [60.633036, 33.251033], [60.566372, 33.151036], [60.8497, 32.20105], [60.799703, 32.034386], [60.833036, 31.484394], [61.71635, 31.367731], [61.81635, 30.984403], [61.76635, 30.917739], [61.799683, 30.834406], [60.864353, 29.863164], [61.403425, 29.26195], [61.848472, 28.556253], [62.745936, 28.243314], [62.837883, 27.211908], [63.305011, 27.221486], [63.2057, 26.627547], [62.422247, 26.586042], [62.087533, 26.279494], [61.976758, 26.234379], [61.789603, 26.158156], [61.613044, 25.181039], [61.434675, 24.661311], [57.5, 25.0], [56.75, 25.583333], [56.75, 26.166667], [56.45, 26.683333], [56.1, 26.35], [55.593921, 25.876926], [55.333333, 25.633333], [53.95, 26.066667], [53.51280899094445, 26.20052716655668], [52.7325, 26.439444], [51.73297896177609, 26.74413002050408], [51.166667, 26.916667], [50.916667, 27.083333], [50.785288, 27.265316], [50.180232, 28.050923], [49.66906, 28.712181], [49.450833, 29.003056], [49.6675, 29.219722], [48.75, 29.852778], [48.566667, 29.95], [48.466667, 29.95], [48.333336, 30.2], [48.182892, 30.326689], [48.016667, 30.466667], [48.016658, 30.982281], [47.683317, 30.982281], [47.683317, 31.382286], [47.849986, 31.782292], [47.499978, 32.148964], [47.549981, 32.215631], [47.416642, 32.348967], [47.433311, 32.3823], [47.299972, 32.482303], [47.166636, 32.4323], [46.449953, 32.898975], [46.083278, 32.965642], [46.116611, 33.065644], [46.033275, 33.082311], [46.033275, 33.132311], [46.166611, 33.165647], [45.966606, 33.46565], [45.833269, 33.498983], [45.933272, 33.548986], [45.883272, 33.615653], [45.766603, 33.582319], [45.383258, 33.965658], [45.549931, 34.198997], [45.549928, 34.315664], [45.483261, 34.315664], [45.433258, 34.449], [45.516594, 34.615669], [45.7166, 34.565669], [45.649931, 34.749006], [45.7666, 34.915675], [45.849936, 34.915675], [45.849936, 34.999011], [45.916606, 35.099011], [46.149944, 35.099011], [45.966606, 35.515686], [45.966606, 35.682356], [46.333281, 35.799025], [46.149942, 35.782358], [46.116608, 35.832358], [45.749933, 35.799025], [45.566594, 35.982361], [45.349922, 35.965694], [45.216586, 36.415703], [45.116583, 36.399036], [44.983247, 36.532372], [45.033247, 36.715708], [44.833242, 36.782378], [44.833242, 36.832378], [44.883244, 36.882378], [44.883242, 36.999047], [44.783242, 37.04905], [44.757369, 37.166172], [44.749906, 37.199053], [44.799908, 37.299053], [44.583236, 37.449058], [44.566567, 37.749064], [44.449897, 37.765731], [44.216558, 37.899067], [44.413631, 38.277258], [44.416564, 38.282408], [44.466564, 38.349075], [44.299892, 38.365742], [44.299892, 38.632414], [44.249892, 38.649083], [44.283225, 38.815753], [44.199889, 38.899086], [44.133222, 39.115758], [44.199889, 39.132425], [44.099886, 39.199094], [44.01655, 39.415764], [44.383228, 39.415767], [44.449894, 39.682439], [44.7, 39.783333], [44.769085, 39.714169], [44.95, 39.5], [45.0, 39.4], [45.166667, 39.216667], [45.333333, 39.166667], [45.466667, 38.983333], [45.626667, 38.95], [45.866667, 38.9], [46.05, 38.9], [46.15, 38.85], [46.333333, 38.916667], [46.55, 38.883333], [47.383333, 39.483333], [47.833333, 39.666667], [48.0, 39.716667], [48.4, 39.366667], [48.166667, 39.283333], [48.4, 39.0], [48.033333, 38.883333], [48.25, 38.733333], [48.316667, 38.616667], [48.45, 38.633333], [48.633333, 38.416667], [48.816667, 38.416667], [48.875, 38.441667], [51.499919, 37.900933], [52.398611, 37.7], [53.916667, 37.35], [54.233333, 37.333333], [54.75, 37.533333], [54.8, 37.733333], [55.083333, 37.933333], [55.5, 38.083333], [55.686111, 38.103611], [56.3375, 38.060833], [56.338056, 38.181389], [56.410675, 38.235314], [56.751111, 38.256111], [57.050556, 38.167778], [57.216667, 38.283333], [57.383333, 38.066667], [57.358333, 37.979167], [57.483333, 37.916667], [57.7, 37.916667], [58.0, 37.816667], [58.2, 37.766669], [58.247219, 37.675], [58.433333, 37.616667], [58.575, 37.7], [58.683333, 37.633333], [58.783333, 37.65], [58.816667, 37.7], [59.202778, 37.513889], [59.332222, 37.505833], [59.531942, 37.126667], [59.711389, 37.1225], [60.055, 37.002778], [60.350303, 36.632361], [61.143656, 36.660692], [61.191992, 36.565689], [61.161989, 36.377353], [61.241989, 36.130681], [61.131986, 35.967344], [61.253656, 35.887344], [61.250322, 35.717342], [61.210558, 35.6875], [61.266667, 35.6], [61.149683, 35.301], [61.083017, 35.284333], [61.082889, 34.994356], [60.966356, 34.651011], [60.716364, 34.534347], [60.899692, 34.317683], [60.683031, 34.317683]]]]}}, {"type": "Feature", "properties": {"id": "OMAE", "name": "OMAE FIR"}, "geometry": {"type": "MultiPolygon", "coordinates": [[[[53.427618448867825, 25.913088200887856], [53.08639665609152, 26.05042005675917], [53.090463345696364, 26.0906021725945], [53.512808990944436, 26.20052716655667], [53.90471247616498, 26.080540360472877], [53.95, 26.066667], [55.333333, 25.633333], [55.593921, 25.876926], [56.1, 26.35], [56.216667, 25.6], [56.304901237591636, 25.455888207352533], [56.555941800386066, 25.451396556089655], [56.556619581874806, 25.12598574599775], [56.51017693475317, 25.119946909118774], [56.583333, 25.0], [56.498922659636335, 24.91589831656717], [56.86162125181639, 24.69752798139018], [56.53628613721203, 24.359006406068577], [56.207107767557886, 24.623774722844672], [55.583333, 24.0], [55.19456698511533, 22.70814118296937], [55.132168939551676, 22.643213094817835], [52.583333, 22.933333], [51.783333, 24.05], [52.37311228359392, 24.84447800321115], [52.681147308096705, 25.257417585792243], [52.33607425137214, 25.43119876657511], [52.4821779000794, 25.641283316097], [52.77748179080805, 25.486987904943323], [52.89359967400086, 25.54140844260767], [52.969419, 25.642596], [53.1, 25.816667], [53.427618448867825, 25.913088200887856]]]]}}, {"type": "Feature", "properties": {"id": "OOMM", "name": "OOMM FIR"}, "geometry": {"type": "MultiPolygon", "coordinates": [[[[56.1, 26.35], [56.216667, 25.6], [56.498922659636335, 24.91589831656717], [56.207107767557886, 24.623774722844672], [55.583333, 24.0], [55.19456698511533, 22.70814118296937], [55.366331, 22.451647], [55.666667, 22.0], [55.016667, 20.0], [52.0, 19.0], [52.733333, 17.366667], [53.066667, 16.633333], [53.5, 15.666667], [57.0, 17.666667], [60.0, 19.8], [64.49532, 23.49615], [61.435292, 23.496539], [61.434675, 24.661311], [57.5, 25.0], [56.75, 25.583333], [56.75, 26.166667], [56.45, 26.683333], [56.1, 26.35]]]]}}, {"type": "Feature", "properties": {"id": "OPKR", "name": "OPKR FIR"}, "geometry": {"type": "MultiPolygon", "coordinates": [[[[66.312528, 30.003306], [66.239911, 29.838022], [66.000308, 29.799886], [65.005714, 29.526425], [64.536686, 29.594117], [64.010639, 29.402506], [63.572878, 29.495117], [62.481119, 29.408831], [60.864353, 29.863164], [61.403425, 29.26195], [61.848472, 28.556253], [62.745936, 28.243314], [62.837883, 27.211908], [63.305011, 27.221486], [63.2057, 26.627547], [62.422247, 26.586042], [62.087533, 26.279494], [61.976758, 26.234379], [61.789603, 26.158156], [61.613044, 25.181039], [61.434675, 24.661311], [61.435292, 23.496539], [64.49532, 23.49615], [68.03454, 23.49615], [68.266719, 23.496508], [68.346808, 23.925522], [68.748125, 23.963067], [68.787672, 24.350567], [69.127472, 24.264756], [69.641572, 24.276825], [69.859944, 24.132864], [70.240625, 24.354592], [70.577497, 24.398839], [70.617042, 24.224531], [71.094528, 24.394819], [70.958308, 24.5584], [71.091597, 24.721983], [70.92632, 24.99911], [70.678558, 25.412506], [70.653658, 25.720897], [70.264053, 25.692739], [70.088294, 26.061464], [70.184964, 26.581706], [69.842819, 26.607078], [69.445303, 26.821714], [69.5666667, 27.1166667], [68.6666667, 27.65], [67.8166667, 29.5], [67.0333333, 30.0], [66.316922, 30.002492], [66.312528, 30.003306]]]]}}, {"type": "Feature", "properties": {"id": "VABF", "name": "VABF FIR"}, "geometry": {"type": "MultiPolygon", "coordinates": [[[[60.0, 19.8], [62.81, 22.11], [64.49532, 23.49615], [68.03454, 23.49615], [68.266719, 23.496508], [68.346808, 23.925522], [68.748125, 23.963067], [68.787672, 24.350567], [69.127472, 24.264756], [69.641572, 24.276825], [69.859944, 24.132864], [70.240625, 24.354592], [70.577497, 24.398839], [70.617042, 24.224531], [71.094528, 24.394819], [70.958308, 24.5584], [71.091597, 24.721983], [70.92632, 24.99911], [70.678558, 25.412506], [73.413888888889, 24.863888888889], [73.448118209415, 24.911370521158], [73.504129222223, 24.971145654535], [73.54093468679645, 24.99981030528179], [73.569710628585, 25.022221442618], [73.643247795463, 25.063328729742], [73.722930023632, 25.093444889342], [73.806795126577, 25.11182005364], [73.892777777778, 25.117996417582], [73.978760428978, 25.11182005364], [74.062625531923, 25.093444889342], [74.142307760092, 25.063328729742], [74.215844926971, 25.022221442618], [74.249166666667, 25.0], [76.0, 24.99964], [79.08194732666016, 25.00027847290039], [80.0594482421875, 23.18027687072754], [80.35444641113281, 22.48055648803711], [80.59361267089844, 21.502500534057617], [81.089722222222, 20.518888888889], [82.0, 18.71666717529297], [80.3922587612256, 19.04930312447274], [77.166666666667, 19.716666666667], [76.0006309098384, 19.316882978611595], [76.0006309098384, 19.316882978611595], [76.0002152934902, 19.23329791302952], [76.0, 18.0], [76.0, 16.666666666667], [75.466666666667, 16.6], [74.183333333333, 16.433333333333], [73.566666666667, 16.366666666667], [73.0, 16.283333333333], [73.583333333333, 15.0], [71.999506, 15.001219], [71.999506, 11.0], [71.999519, 7.5018], [69.999769, 7.501797], [70.0, 3.083333], [68.000019, 0.002325], [68.0, -6.0], [60.0, -6.0], [60.0, 10.7], [59.999594, 12.000714], [60.0, 19.48], [60.0, 19.8]]]]}}]}